[
    {
        "Altitude(m)": 553763.0392207712,
        "Argument of Periapsis(deg)": 0.033114955553567506,
        "Eccentricity": 0.0,
        "Inclination(deg)": 53.0,
        "Latitude(deg)": 4.636647345923812,
        "Longitude(deg)": 42.52772400204859,
        "Mean Anomaly(deg)": -185.9055356621121,
        "RAAN(deg)": 329.95071684264,
        "Satellite Name": "Starlink Shell 1 1459",
        "Satellite Number": 1459,
        "Semi-Major Axis(m)": 6931778.249405717,
        "Time(s)": 950
    },
    {
        "Altitude(m)": 553803.9163823065,
        "Argument of Periapsis(deg)": 0.03346353403307874,
        "Eccentricity": 0.0,
        "Inclination(deg)": 53.0,
        "Latitude(deg)": 4.133496387745243,
        "Longitude(deg)": 42.86534915262106,
        "Mean Anomaly(deg)": -185.27870445855538,
        "RAAN(deg)": 329.9501980725626,
        "Satellite Name": "Starlink Shell 1 1459",
        "Satellite Number": 1459,
        "Semi-Major Axis(m)": 6931778.249405717,
        "Time(s)": 960
    },
    {
        "Altitude(m)": 553847.609682858,
        "Argument of Periapsis(deg)": 0.03381211251258998,
        "Eccentricity": 0.0,
        "Inclination(deg)": 53.0,
        "Latitude(deg)": 3.6301659386977763,
        "Longitude(deg)": 43.202491259640496,
        "Mean Anomaly(deg)": -184.6518732549986,
        "RAAN(deg)": 329.9496793024851,
        "Satellite Name": "Starlink Shell 1 1459",
        "Satellite Number": 1459,
        "Semi-Major Axis(m)": 6931778.249405717,
        "Time(s)": 970
    },
    {
        "Altitude(m)": 553894.1215565114,
        "Argument of Periapsis(deg)": 0.034160690992101214,
        "Eccentricity": 0.0,
        "Inclination(deg)": 53.0,
        "Latitude(deg)": 3.126679268884617,
        "Longitude(deg)": 43.539208640553255,
        "Mean Anomaly(deg)": -184.02504205144191,
        "RAAN(deg)": 329.94916053240763,
        "Satellite Name": "Starlink Shell 1 1459",
        "Satellite Number": 1459,
        "Semi-Major Axis(m)": 6931778.249405717,
        "Time(s)": 980
    },
    {
        "Altitude(m)": 553943.4530911517,
        "Argument of Periapsis(deg)": 0.034509269471612446,
        "Eccentricity": 0.0,
        "Inclination(deg)": 53.0,
        "Latitude(deg)": 2.6230595597224102,
        "Longitude(deg)": 43.87555992905585,
        "Mean Anomaly(deg)": -183.3982108478852,
        "RAAN(deg)": 329.9486417623302,
        "Satellite Name": "Starlink Shell 1 1459",
        "Satellite Number": 1459,
        "Semi-Major Axis(m)": 6931778.249405717,
        "Time(s)": 990
    }
]